{"type": "FeatureCollection", "features": [ {"type": "Feature", "properties": {"norad_id": 66926, "name": "STARLINK-35942", "group": "last-30-days", "lat": 39.14494638558602, "lon": 64.76872017348225, "alt_km": 308.0676574207864, "timestamp": "2025-12-17T09:00:15.892604+00:00", "meta": {"OBJECT_NAME": "STARLINK-35942", "OBJECT_ID": "2025-286B", "EPOCH": "2025-12-16T22:00:03.000096", "MEAN_MOTION": 15.87188404, "ECCENTRICITY": 6.534e-05, "INCLINATION": 53.1569, "RA_OF_ASC_NODE": 29.4726, "ARG_OF_PERICENTER": 95.7804, "MEAN_ANOMALY": 216.1152, "EPHEMERIS_TYPE": 0, "CLASSIFICATION_TYPE": "U", "NORAD_CAT_ID": 66926, "ELEMENT_SET_NO": 999, "REV_AT_EPOCH": 266, "BSTAR": -0.0049849335, "MEAN_MOTION_DOT": -0.01187357, "MEAN_MOTION_DDOT": 0}, "tle": {"line1": "1 66926U 25286B   25350.91670139 -.01187357  00000+0 -49849-2 0  9992", "line2": "2 66926  53.1569  29.4726 0000653  95.7804 216.1152 15.87188404  2665"}}, "geometry": {"type": "Point", "coordinates": [64.76872017348225, 39.14494638558602]}}, {"type": "Feature", "properties": {"norad_id": 66927, "name": "STARLINK-35943", "group": "last-30-days", "lat": 40.41230612576129, "lon": 66.82504353294483, "alt_km": 307.7196321889942, "timestamp": "2025-12-17T09:00:15.892614+00:00", "meta": {"OBJECT_NAME": "STARLINK-35943", "OBJECT_ID": "2025-286C", "EPOCH": "2025-12-16T22:00:03.000096", "MEAN_MOTION": 15.87225878, "ECCENTRICITY": 6.548e-05, "INCLINATION": 53.157, "RA_OF_ASC_NODE": 29.4688, "ARG_OF_PERICENTER": 87.6292, "MEAN_ANOMALY": 226.2367, "EPHEMERIS_TYPE": 0, "CLASSIFICATION_TYPE": "U", "NORAD_CAT_ID": 66927, "ELEMENT_SET_NO": 999, "REV_AT_EPOCH": 266, "BSTAR": -0.0050164241, "MEAN_MOTION_DOT": -0.01196041, "MEAN_MOTION_DDOT": 0}, "tle": {"line1": "1 66927U 25286C   25350.91670139 -.01196041  00000+0 -50164-2 0  9995", "line2": "2 66927  53.1570  29.4688 0000654  87.6292 226.2367 15.87225878  2664"}}, "geometry": {"type": "Point", "coordinates": [66.82504353294483, 40.41230612576129]}}, {"type": "Feature", "properties": {"norad_id": 66928, "name": "STARLINK-35944", "group": "last-30-days", "lat": 37.81730798229586, "lon": 62.74904479407146, "alt_km": 308.3665262231216, "timestamp": "2025-12-17T09:00:15.892628+00:00", "meta": {"OBJECT_NAME": "STARLINK-35944", "OBJECT_ID": "2025-286D", "EPOCH": "2025-12-16T22:00:03.000096", "MEAN_MOTION": 15.87159776, "ECCENTRICITY": 5.979e-05, "INCLINATION": 53.157, "RA_OF_ASC_NODE": 29.4769, "ARG_OF_PERICENTER": 89.5166, "MEAN_ANOMALY": 220.364, "EPHEMERIS_TYPE": 0, "CLASSIFICATION_TYPE": "U", "NORAD_CAT_ID": 66928, "ELEMENT_SET_NO": 999, "REV_AT_EPOCH": 266, "BSTAR": -0.0050057937, "MEAN_MOTION_DOT": -0.01190248, "MEAN_MOTION_DDOT": 0}, "tle": {"line1": "1 66928U 25286D   25350.91670139 -.01190248  00000+0 -50058-2 0  9991", "line2": "2 66928  53.1570  29.4769 0000597  89.5166 220.3640 15.87159776  2664"}}, "geometry": {"type": "Point", "coordinates": [62.74904479407146, 37.81730798229586]}}, {"type": "Feature", "properties": {"norad_id": 66929, "name": "STARLINK-36169", "group": "last-30-days", "lat": 41.74348676739941, "lon": 69.1424204590376, "alt_km": 307.3143452568038, "timestamp": "2025-12-17T09:00:15.892638+00:00", "meta": {"OBJECT_NAME": "STARLINK-36169", "OBJECT_ID": "2025-286E", "EPOCH": "2025-12-16T22:00:03.000096", "MEAN_MOTION": 15.87261343, "ECCENTRICITY": 7.203e-05, "INCLINATION": 53.157, "RA_OF_ASC_NODE": 29.4641, "ARG_OF_PERICENTER": 74.4115, "MEAN_ANOMALY": 241.5999, "EPHEMERIS_TYPE": 0, "CLASSIFICATION_TYPE": "U", "NORAD_CAT_ID": 66929, "ELEMENT_SET_NO": 999, "REV_AT_EPOCH": 266, "BSTAR": -0.005057685, "MEAN_MOTION_DOT": -0.01206744, "MEAN_MOTION_DDOT": 0}, "tle": {"line1": "1 66929U 25286E   25350.91670139 -.01206744  00000+0 -50577-2 0  9997", "line2": "2 66929  53.1570  29.4641 0000720  74.4115 241.5999 15.87261343  2665"}}, "geometry": {"type": "Point", "coordinates": [69.1424204590376, 41.74348676739941]}}, {"type": "Feature", "properties": {"norad_id": 66930, "name": "STARLINK-36206", "group": "last-30-days", "lat": 42.901487878888844, "lon": 71.31347141173225, "alt_km": 307.1413726376504, "timestamp": "2025-12-17T09:00:15.892648+00:00", "meta": {"OBJECT_NAME": "STARLINK-36206", "OBJECT_ID": "2025-286F", "EPOCH": "2025-12-16T22:00:03.000096", "MEAN_MOTION": 15.87295916, "ECCENTRICITY": 6.59e-05, "INCLINATION": 53.1569, "RA_OF_ASC_NODE": 29.4599, "ARG_OF_PERICENTER": 85.6856, "MEAN_ANOMALY": 232.2522, "EPHEMERIS_TYPE": 0, "CLASSIFICATION_TYPE": "U", "NORAD_CAT_ID": 66930, "ELEMENT_SET_NO": 999, "REV_AT_EPOCH": 266, "BSTAR": -0.0050680992, "MEAN_MOTION_DOT": -0.01210783, "MEAN_MOTION_DDOT": 0}, "tle": {"line1": "1 66930U 25286F   25350.91670139 -.01210783  00000+0 -50681-2 0  9993", "line2": "2 66930  53.1569  29.4599 0000659  85.6856 232.2522 15.87295916  2666"}}, "geometry": {"type": "Point", "coordinates": [71.31347141173225, 42.901487878888844]}}, {"type": "Feature", "properties": {"norad_id": 66931, "name": "STARLINK-36130", "group": "last-30-days", "lat": 44.16845152172948, "lon": 73.88672102608952, "alt_km": 306.8023752066347, "timestamp": "2025-12-17T09:00:15.892658+00:00", "meta": {"OBJECT_NAME": "STARLINK-36130", "OBJECT_ID": "2025-286G", "EPOCH": "2025-12-16T22:00:03.000096", "MEAN_MOTION": 15.87328094, "ECCENTRICITY": 6.814e-05, "INCLINATION": 53.1569, "RA_OF_ASC_NODE": 29.4555, "ARG_OF_PERICENTER": 76.3382, "MEAN_ANOMALY": 243.8053, "EPHEMERIS_TYPE": 0, "CLASSIFICATION_TYPE": "U", "NORAD_CAT_ID": 66931, "ELEMENT_SET_NO": 999, "REV_AT_EPOCH": 266, "BSTAR": -0.0050908954, "MEAN_MOTION_DOT": -0.01217382, "MEAN_MOTION_DDOT": 0}, "tle": {"line1": "1 66931U 25286G   25350.91670139 -.01217382  00000+0 -50909-2 0  9999", "line2": "2 66931  53.1569  29.4555 0000681  76.3382 243.8053 15.87328094  2666"}}, "geometry": {"type": "Point", "coordinates": [73.88672102608952, 44.16845152172948]}}, {"type": "Feature", "properties": {"norad_id": 66932, "name": "STARLINK-36177", "group": "last-30-days", "lat": 45.346673008668496, "lon": 76.50415091828569, "alt_km": 306.58309031767385, "timestamp": "2025-12-17T09:00:15.892667+00:00", "meta": {"OBJECT_NAME": "STARLINK-36177", "OBJECT_ID": "2025-286H", "EPOCH": "2025-12-16T22:00:03.000096", "MEAN_MOTION": 15.87363567, "ECCENTRICITY": 6.563e-05, "INCLINATION": 53.1569, "RA_OF_ASC_NODE": 29.4509, "ARG_OF_PERICENTER": 82.5589, "MEAN_ANOMALY": 239.733, "EPHEMERIS_TYPE": 0, "CLASSIFICATION_TYPE": "U", "NORAD_CAT_ID": 66932, "ELEMENT_SET_NO": 999, "REV_AT_EPOCH": 266, "BSTAR": -0.005115674, "MEAN_MOTION_DOT": -0.01224566, "MEAN_MOTION_DDOT": 0}, "tle": {"line1": "1 66932U 25286H   25350.91670139 -.01224566  00000+0 -51157-2 0  9998", "line2": "2 66932  53.1569  29.4509 0000656  82.5589 239.7330 15.87363567  2662"}}, "geometry": {"type": "Point", "coordinates": [76.50415091828569, 45.346673008668496]}}, {"type": "Feature", "properties": {"norad_id": 66933, "name": "STARLINK-36157", "group": "last-30-days", "lat": 46.446097528649716, "lon": 79.18842276536289, "alt_km": 306.3341143901698, "timestamp": "2025-12-17T09:00:15.892677+00:00", "meta": {"OBJECT_NAME": "STARLINK-36157", "OBJECT_ID": "2025-286J", "EPOCH": "2025-12-16T22:00:03.000096", "MEAN_MOTION": 15.87393614, "ECCENTRICITY": 6.434e-05, "INCLINATION": 53.1569, "RA_OF_ASC_NODE": 29.4466, "ARG_OF_PERICENTER": 83.3313, "MEAN_ANOMALY": 241.0766, "EPHEMERIS_TYPE": 0, "CLASSIFICATION_TYPE": "U", "NORAD_CAT_ID": 66933, "ELEMENT_SET_NO": 999, "REV_AT_EPOCH": 266, "BSTAR": -0.0051033632, "MEAN_MOTION_DOT": -0.01223569, "MEAN_MOTION_DDOT": 0}, "tle": {"line1": "1 66933U 25286J   25350.91670139 -.01223569  00000+0 -51034-2 0  9995", "line2": "2 66933  53.1569  29.4466 0000643  83.3313 241.0766 15.87393614  2660"}}, "geometry": {"type": "Point", "coordinates": [79.18842276536289, 46.446097528649716]}}, {"type": "Feature", "properties": {"norad_id": 66934, "name": "STARLINK-36153", "group": "last-30-days", "lat": 47.48878027472426, "lon": 82.0049797259592, "alt_km": 306.10391972481375, "timestamp": "2025-12-17T09:00:15.892689+00:00", "meta": {"OBJECT_NAME": "STARLINK-36153", "OBJECT_ID": "2025-286K", "EPOCH": "2025-12-16T22:00:03.000096", "MEAN_MOTION": 15.87424276, "ECCENTRICITY": 6.116e-05, "INCLINATION": 53.1568, "RA_OF_ASC_NODE": 29.4418, "ARG_OF_PERICENTER": 81.4664, "MEAN_ANOMALY": 245.078, "EPHEMERIS_TYPE": 0, "CLASSIFICATION_TYPE": "U", "NORAD_CAT_ID": 66934, "ELEMENT_SET_NO": 999, "REV_AT_EPOCH": 266, "BSTAR": -0.005104786, "MEAN_MOTION_DOT": -0.01225524, "MEAN_MOTION_DDOT": 0}, "tle": {"line1": "1 66934U 25286K   25350.91670139 -.01225524  00000+0 -51048-2 0  9994", "line2": "2 66934  53.1568  29.4418 0000611  81.4664 245.0780 15.87424276  2669"}}, "geometry": {"type": "Point", "coordinates": [82.0049797259592, 47.48878027472426]}}, {"type": "Feature", "properties": {"norad_id": 66935, "name": "STARLINK-36127", "group": "last-30-days", "lat": 48.56952430198401, "lon": 85.28609564627111, "alt_km": 305.91205638662814, "timestamp": "2025-12-17T09:00:15.892703+00:00", "meta": {"OBJECT_NAME": "STARLINK-36127", "OBJECT_ID": "2025-286L", "EPOCH": "2025-12-16T22:00:03.000096", "MEAN_MOTION": 15.87461432, "ECCENTRICITY": 6.309e-05, "INCLINATION": 53.1568, "RA_OF_ASC_NODE": 29.437, "ARG_OF_PERICENTER": 91.4231, "MEAN_ANOMALY": 237.5197, "EPHEMERIS_TYPE": 0, "CLASSIFICATION_TYPE": "U", "NORAD_CAT_ID": 66935, "ELEMENT_SET_NO": 999, "REV_AT_EPOCH": 266, "BSTAR": -0.0051662897, "MEAN_MOTION_DOT": -0.0124069, "MEAN_MOTION_DDOT": 0}, "tle": {"line1": "1 66935U 25286L   25350.91670139 -.01240690  00000+0 -51663-2 0  9999", "line2": "2 66935  53.1568  29.4370 0000630  91.4231 237.5197 15.87461432  2662"}}, "geometry": {"type": "Point", "coordinates": [85.28609564627111, 48.56952430198401]}}]}